start=new Date('2022-11-18T00:00:00.000Z').valueOf();
sats=[{"RCS_SIZE":"LARGE","PERIAPSIS":"561.691","DECAY_DATE":null,"LAUNCH_DATE":"2022-07-22","CENTER_NAME":"EARTH","TIME_SYSTEM":"UTC","SEMIMAJOR_AXIS":"6941.132","COUNTRY_CODE":"US","MEAN_MOTION_DOT":"0.00001601","INCLINATION":"97.6546","MEAN_MOTION_DDOT":"0.0000000000000","RA_OF_ASC_NODE":"20.8657","MEAN_ELEMENT_THEORY":"SGP4","EPHEMERIS_TYPE":"0","CLASSIFICATION_TYPE":"U","TLE_LINE1":"1 53193U 22084E   22321.77161642  .00001601  00000-0  12921-3 0  9997","ELEMENT_SET_NO":"999","ECCENTRICITY":"0.00018810","MEAN_ANOMALY":"296.5207","REF_FRAME":"TEME","OBJECT_TYPE":"PAYLOAD","APOAPSIS":"564.302","GP_ID":"218098822","FILE":"3661914","EPOCH":"2022-11-17T18:31:07.658688","REV_AT_EPOCH":"1910","TLE_LINE2":"2 53193  97.6546  20.8657 0001881  63.6211 296.5207 15.01264927 19104","BSTAR":"0.00012921000000","NORAD_CAT_ID":"53193","MEAN_MOTION":"15.01264927","PERIOD":"95.919","SITE":"AFWTR","OBJECT_NAME":"STARLINK-4351","ARG_OF_PERICENTER":"63.6211","OBJECT_ID":"2022-084E"},{"ARG_OF_PERICENTER":"55.2779","OBJECT_ID":"2022-084F","SITE":"AFWTR","OBJECT_NAME":"STARLINK-4382","PERIOD":"95.919","MEAN_MOTION":"15.01264588","NORAD_CAT_ID":"53194","BSTAR":"0.00011455000000","TLE_LINE2":"2 53194  97.6552  20.8597 0002175  55.2779 304.8650 15.01264588 18082","REV_AT_EPOCH":"1808","EPOCH":"2022-11-17T18:28:27.674400","FILE":"3661914","OBJECT_TYPE":"PAYLOAD","GP_ID":"218099304","APOAPSIS":"564.507","REF_FRAME":"TEME","MEAN_ANOMALY":"304.8650","ECCENTRICITY":"0.00021750","EPHEMERIS_TYPE":"0","CLASSIFICATION_TYPE":"U","TLE_LINE1":"1 53194U 22084F   22321.76976475  .00001413  00000-0  11455-3 0  9997","ELEMENT_SET_NO":"999","MEAN_ELEMENT_THEORY":"SGP4","RA_OF_ASC_NODE":"20.8597","INCLINATION":"97.6552","MEAN_MOTION_DDOT":"0.0000000000000","COUNTRY_CODE":"US","SEMIMAJOR_AXIS":"6941.133","MEAN_MOTION_DOT":"0.00001413","DECAY_DATE":null,"LAUNCH_DATE":"2022-07-22","CENTER_NAME":"EARTH","TIME_SYSTEM":"UTC","PERIAPSIS":"561.488","RCS_SIZE":"LARGE"},{"RCS_SIZE":"LARGE","PERIAPSIS":"564.347","DECAY_DATE":null,"LAUNCH_DATE":"2022-07-22","CENTER_NAME":"EARTH","TIME_SYSTEM":"UTC","MEAN_MOTION_DOT":"0.00000568","SEMIMAJOR_AXIS":"6943.638","COUNTRY_CODE":"US","MEAN_MOTION_DDOT":"0.0000000000000","INCLINATION":"97.6609","RA_OF_ASC_NODE":"20.3160","MEAN_ELEMENT_THEORY":"SGP4","ELEMENT_SET_NO":"999","TLE_LINE1":"1 53195U 22084G   22321.12594617  .00000568  00000-0  49840-4 0  9992","CLASSIFICATION_TYPE":"U","EPHEMERIS_TYPE":"0","MEAN_ANOMALY":"306.4806","ECCENTRICITY":"0.00016650","REF_FRAME":"TEME","GP_ID":"218068158","APOAPSIS":"566.659","OBJECT_TYPE":"PAYLOAD","FILE":"3661693","EPOCH":"2022-11-17T03:01:21.749088","REV_AT_EPOCH":"1866","TLE_LINE2":"2 53195  97.6609  20.3160 0001665  53.6571 306.4806 15.00452254 18665","BSTAR":"0.00004984000000","NORAD_CAT_ID":"53195","MEAN_MOTION":"15.00452254","PERIOD":"95.971","OBJECT_NAME":"STARLINK-4404","SITE":"AFWTR","OBJECT_ID":"2022-084G","ARG_OF_PERICENTER":"53.6571"},{"TLE_LINE2":"2 53196  97.6556  20.8473 0002299  72.3901 287.7575 15.01282967 18744","REV_AT_EPOCH":"1874","MEAN_MOTION":"15.01282967","NORAD_CAT_ID":"53196","BSTAR":"0.00046068000000","OBJECT_ID":"2022-084H","ARG_OF_PERICENTER":"72.3901","OBJECT_NAME":"STARLINK-4407","SITE":"AFWTR","PERIOD":"95.918","MEAN_MOTION_DOT":"0.00005867","COUNTRY_CODE":"US","SEMIMAJOR_AXIS":"6941.076","LAUNCH_DATE":"2022-07-22","DECAY_DATE":null,"CENTER_NAME":"EARTH","TIME_SYSTEM":"UTC","PERIAPSIS":"561.345","RCS_SIZE":"LARGE","MEAN_ELEMENT_THEORY":"SGP4","RA_OF_ASC_NODE":"20.8473","MEAN_MOTION_DDOT":"0.0000000000000","INCLINATION":"97.6556","MEAN_ANOMALY":"287.7575","ECCENTRICITY":"0.00022990","TLE_LINE1":"1 53196U 22084H   22321.76629500  .00005867  00000-0  46068-3 0  9998","ELEMENT_SET_NO":"999","CLASSIFICATION_TYPE":"U","EPHEMERIS_TYPE":"0","EPOCH":"2022-11-17T18:23:27.888000","FILE":"3661914","APOAPSIS":"564.537","GP_ID":"218098656","OBJECT_TYPE":"PAYLOAD","REF_FRAME":"TEME"},{"BSTAR":"0.00016934000000","MEAN_MOTION":"15.01276709","NORAD_CAT_ID":"53197","PERIOD":"95.918","ARG_OF_PERICENTER":"97.8210","OBJECT_ID":"2022-084J","SITE":"AFWTR","OBJECT_NAME":"STARLINK-4403","REV_AT_EPOCH":"1806","TLE_LINE2":"2 53197  97.6561  20.7063 0001900  97.8210 262.3230 15.01276709 18067","ECCENTRICITY":"0.00019000","MEAN_ANOMALY":"262.3230","EPHEMERIS_TYPE":"0","TLE_LINE1":"1 53197U 22084J   22321.62720167  .00002118  00000-0  16934-3 0  9990","CLASSIFICATION_TYPE":"U","ELEMENT_SET_NO":"999","OBJECT_TYPE":"PAYLOAD","GP_ID":"218099146","APOAPSIS":"564.279","REF_FRAME":"TEME","EPOCH":"2022-11-17T15:03:10.224288","FILE":"3661914","PERIAPSIS":"561.642","RCS_SIZE":"LARGE","COUNTRY_CODE":"US","SEMIMAJOR_AXIS":"6941.095","MEAN_MOTION_DOT":"0.00002118","LAUNCH_DATE":"2022-07-22","DECAY_DATE":null,"CENTER_NAME":"EARTH","TIME_SYSTEM":"UTC","INCLINATION":"97.6561","MEAN_MOTION_DDOT":"0.0000000000000","MEAN_ELEMENT_THEORY":"SGP4","RA_OF_ASC_NODE":"20.7063"},{"TLE_LINE2":"2 53198  97.6553  20.7122 0001798  95.3814 264.7615 15.01259907 18720","REV_AT_EPOCH":"1872","PERIOD":"95.919","ARG_OF_PERICENTER":"95.3814","OBJECT_ID":"2022-084K","SITE":"AFWTR","OBJECT_NAME":"STARLINK-4385","BSTAR":"-0.00002282200000","MEAN_MOTION":"15.01259907","NORAD_CAT_ID":"53198","INCLINATION":"97.6553","MEAN_MOTION_DDOT":"0.0000000000000","MEAN_ELEMENT_THEORY":"SGP4","RA_OF_ASC_NODE":"20.7122","PERIAPSIS":"561.764","RCS_SIZE":"LARGE","SEMIMAJOR_AXIS":"6941.147","COUNTRY_CODE":"US","MEAN_MOTION_DOT":"-0.00000352","DECAY_DATE":null,"CENTER_NAME":"EARTH","LAUNCH_DATE":"2022-07-22","TIME_SYSTEM":"UTC","OBJECT_TYPE":"PAYLOAD","GP_ID":"218098980","APOAPSIS":"564.260","REF_FRAME":"TEME","EPOCH":"2022-11-17T15:08:30.611040","FILE":"3661914","MEAN_ANOMALY":"264.7615","ECCENTRICITY":"0.00017980","EPHEMERIS_TYPE":"0","ELEMENT_SET_NO":"999","TLE_LINE1":"1 53198U 22084K   22321.63090985 -.00000352  00000-0 -22822-4 0  9994","CLASSIFICATION_TYPE":"U"},{"INCLINATION":"97.6554","MEAN_MOTION_DDOT":"0.0000000000000","MEAN_ELEMENT_THEORY":"SGP4","RA_OF_ASC_NODE":"20.8365","PERIAPSIS":"561.572","RCS_SIZE":"LARGE","COUNTRY_CODE":"US","SEMIMAJOR_AXIS":"6941.095","MEAN_MOTION_DOT":"0.00003823","DECAY_DATE":null,"CENTER_NAME":"EARTH","LAUNCH_DATE":"2022-07-22","TIME_SYSTEM":"UTC","OBJECT_TYPE":"PAYLOAD","APOAPSIS":"564.348","GP_ID":"218098148","REF_FRAME":"TEME","EPOCH":"2022-11-17T18:12:27.356544","FILE":"3661914","MEAN_ANOMALY":"247.5545","ECCENTRICITY":"0.00020000","EPHEMERIS_TYPE":"0","TLE_LINE1":"1 53199U 22084L   22321.75864996  .00003823  00000-0  30194-3 0  9993","CLASSIFICATION_TYPE":"U","ELEMENT_SET_NO":"999","REV_AT_EPOCH":"1808","TLE_LINE2":"2 53199  97.6554  20.8365 0002000 112.5891 247.5545 15.01276811 18089","PERIOD":"95.918","ARG_OF_PERICENTER":"112.5891","OBJECT_ID":"2022-084L","SITE":"AFWTR","OBJECT_NAME":"STARLINK-4395","BSTAR":"0.00030194000000","MEAN_MOTION":"15.01276811","NORAD_CAT_ID":"53199"},{"DECAY_DATE":null,"TIME_SYSTEM":"UTC","LAUNCH_DATE":"2022-07-22","CENTER_NAME":"EARTH","COUNTRY_CODE":"US","SEMIMAJOR_AXIS":"6941.156","MEAN_MOTION_DOT":"0.00000463","RCS_SIZE":"LARGE","PERIAPSIS":"561.701","RA_OF_ASC_NODE":"20.7076","MEAN_ELEMENT_THEORY":"SGP4","INCLINATION":"97.6548","MEAN_MOTION_DDOT":"0.0000000000000","EPHEMERIS_TYPE":"0","TLE_LINE1":"1 53200U 22084M   22321.62905981  .00000463  00000-0  40678-4 0  9998","ELEMENT_SET_NO":"999","CLASSIFICATION_TYPE":"U","MEAN_ANOMALY":"277.2312","ECCENTRICITY":"0.00019020","FILE":"3661914","EPOCH":"2022-11-17T15:05:50.767584","REF_FRAME":"TEME","OBJECT_TYPE":"PAYLOAD","GP_ID":"218098314","APOAPSIS":"564.342","REV_AT_EPOCH":"1872","TLE_LINE2":"2 53200  97.6548  20.7076 0001902  82.9128 277.2312 15.01256929 18727","NORAD_CAT_ID":"53200","MEAN_MOTION":"15.01256929","BSTAR":"0.00004067800000","SITE":"AFWTR","OBJECT_NAME":"STARLINK-4417","ARG_OF_PERICENTER":"82.9128","OBJECT_ID":"2022-084M","PERIOD":"95.920"},{"RCS_SIZE":"LARGE","PERIAPSIS":"561.768","LAUNCH_DATE":"2022-07-22","DECAY_DATE":null,"TIME_SYSTEM":"UTC","CENTER_NAME":"EARTH","MEAN_MOTION_DOT":"0.00000354","COUNTRY_CODE":"US","SEMIMAJOR_AXIS":"6941.114","MEAN_MOTION_DDOT":"0.0000000000000","INCLINATION":"97.6567","RA_OF_ASC_NODE":"20.8311","MEAN_ELEMENT_THEORY":"SGP4","TLE_LINE1":"1 53201U 22084N   22321.75494949  .00000354  00000-0  32169-4 0  9995","CLASSIFICATION_TYPE":"U","ELEMENT_SET_NO":"999","EPHEMERIS_TYPE":"0","MEAN_ANOMALY":"250.5972","ECCENTRICITY":"0.00017440","REF_FRAME":"TEME","APOAPSIS":"564.190","GP_ID":"218098823","OBJECT_TYPE":"PAYLOAD","FILE":"3661914","EPOCH":"2022-11-17T18:07:07.635936","TLE_LINE2":"2 53201  97.6567  20.8311 0001744 109.5441 250.5972 15.01270651 18083","REV_AT_EPOCH":"1808","BSTAR":"0.00003216900000","NORAD_CAT_ID":"53201","MEAN_MOTION":"15.01270651","PERIOD":"95.919","OBJECT_NAME":"STARLINK-4405","SITE":"AFWTR","OBJECT_ID":"2022-084N","ARG_OF_PERICENTER":"109.5441"},{"PERIOD":"95.972","OBJECT_ID":"2022-084P","ARG_OF_PERICENTER":"54.4174","OBJECT_NAME":"STARLINK-4411","SITE":"AFWTR","BSTAR":"0.00003640100000","MEAN_MOTION":"15.00441241","NORAD_CAT_ID":"53202","TLE_LINE2":"2 53202  97.6548  21.0327 0000772  54.4174 305.7122 15.00441241 18088","REV_AT_EPOCH":"1808","GP_ID":"218099305","APOAPSIS":"566.073","OBJECT_TYPE":"PAYLOAD","REF_FRAME":"TEME","EPOCH":"2022-11-17T14:39:53.233056","FILE":"3661914","ECCENTRICITY":"0.00007720","MEAN_ANOMALY":"305.7122","ELEMENT_SET_NO":"999","TLE_LINE1":"1 53202U 22084P   22321.61103279  .00000399  00000-0  36401-4 0  9996","CLASSIFICATION_TYPE":"U","EPHEMERIS_TYPE":"0","MEAN_MOTION_DDOT":"0.0000000000000","INCLINATION":"97.6548","MEAN_ELEMENT_THEORY":"SGP4","RA_OF_ASC_NODE":"21.0327","PERIAPSIS":"565.001","RCS_SIZE":"LARGE","MEAN_MOTION_DOT":"0.00000399","COUNTRY_CODE":"US","SEMIMAJOR_AXIS":"6943.672","LAUNCH_DATE":"2022-07-22","DECAY_DATE":null,"CENTER_NAME":"EARTH","TIME_SYSTEM":"UTC"}];
